[
  {
    "OBJECT_NAME": "STARLINK-5730",
    "OBJECT_ID": "23020AU",
    "EPOCH": "2025-11-11T06:09:47.472480",
    "MEAN_MOTION": 15.02538796,
    "ECCENTRICITY": 0.0001141,
    "INCLINATION": 43.0041,
    "RA_OF_ASC_NODE": 275.2221,
    "ARG_OF_PERICENTER": 275.4638,
    "MEAN_ANOMALY": 84.6074,
    "EPHEMERIS_TYPE": 0,
    "CLASSIFICATION_TYPE": "U",
    "NORAD_CAT_ID": 55611,
    "ELEMENT_SET_NO": 999,
    "REV_AT_EPOCH": 15125,
    "BSTAR": 9.2558e-05,
    "MEAN_MOTION_DOT": 1.047e-05,
    "MEAN_MOTION_DDOT": 0.0,
    "TLE_LINE1": "1 55611U 23020AU  25315.25679945  .00001047  00000+0  92558-4 0  9992",
    "TLE_LINE2": "2 55611  43.0041 275.2221 0001141 275.4638  84.6074 15.02538796151254",
    "COMMENT": "Grouped by shell and plane from TLE"
  },
  {
    "OBJECT_NAME": "STARLINK-5734",
    "OBJECT_ID": "23020AV",
    "EPOCH": "2025-11-11T06:08:12.098112",
    "MEAN_MOTION": 15.02550754,
    "ECCENTRICITY": 4.67e-05,
    "INCLINATION": 43.0012,
    "RA_OF_ASC_NODE": 275.2129,
    "ARG_OF_PERICENTER": 320.1604,
    "MEAN_ANOMALY": 39.9204,
    "EPHEMERIS_TYPE": 0,
    "CLASSIFICATION_TYPE": "U",
    "NORAD_CAT_ID": 55612,
    "ELEMENT_SET_NO": 999,
    "REV_AT_EPOCH": 15125,
    "BSTAR": 0.00032879999999999997,
    "MEAN_MOTION_DOT": 4.242e-05,
    "MEAN_MOTION_DDOT": 0.0,
    "TLE_LINE1": "1 55612U 23020AV  25315.25569558  .00004242  00000+0  32880-3 0  9992",
    "TLE_LINE2": "2 55612  43.0012 275.2129 0000467 320.1604  39.9204 15.02550754151257",
    "COMMENT": "Grouped by shell and plane from TLE"
  },
  {
    "OBJECT_NAME": "STARLINK-5712",
    "OBJECT_ID": "23020AY",
    "EPOCH": "2025-11-11T06:03:23.552352",
    "MEAN_MOTION": 15.02539084,
    "ECCENTRICITY": 0.0001318,
    "INCLINATION": 43.0046,
    "RA_OF_ASC_NODE": 275.1874,
    "ARG_OF_PERICENTER": 265.6721,
    "MEAN_ANOMALY": 94.3971,
    "EPHEMERIS_TYPE": 0,
    "CLASSIFICATION_TYPE": "U",
    "NORAD_CAT_ID": 55615,
    "ELEMENT_SET_NO": 999,
    "REV_AT_EPOCH": 15125,
    "BSTAR": 6.2872e-05,
    "MEAN_MOTION_DOT": 6.46e-06,
    "MEAN_MOTION_DDOT": 0.0,
    "TLE_LINE1": "1 55615U 23020AY  25315.25235593  .00000646  00000+0  62872-4 0  9993",
    "TLE_LINE2": "2 55615  43.0046 275.1874 0001318 265.6721  94.3971 15.02539084151251",
    "COMMENT": "Grouped by shell and plane from TLE"
  },
  {
    "OBJECT_NAME": "STARLINK-5710",
    "OBJECT_ID": "23020AZ",
    "EPOCH": "2025-11-11T05:50:37.293216",
    "MEAN_MOTION": 15.02530623,
    "ECCENTRICITY": 0.0001226,
    "INCLINATION": 43.004,
    "RA_OF_ASC_NODE": 275.1212,
    "ARG_OF_PERICENTER": 270.7668,
    "MEAN_ANOMALY": 89.3034,
    "EPHEMERIS_TYPE": 0,
    "CLASSIFICATION_TYPE": "U",
    "NORAD_CAT_ID": 55616,
    "ELEMENT_SET_NO": 999,
    "REV_AT_EPOCH": 15125,
    "BSTAR": 0.0,
    "MEAN_MOTION_DOT": -6.66e-06,
    "MEAN_MOTION_DDOT": 0.0,
    "TLE_LINE1": "1 55616U 23020AZ  25315.24348719 -.00000666  00000+0 -34241-4 0  9991",
    "TLE_LINE2": "2 55616  43.0040 275.1212 0001226 270.7668  89.3034 15.02530623151251",
    "COMMENT": "Grouped by shell and plane from TLE"
  },
  {
    "OBJECT_NAME": "STARLINK-5721",
    "OBJECT_ID": "23020BA",
    "EPOCH": "2025-11-11T05:58:37.386048",
    "MEAN_MOTION": 15.02503562,
    "ECCENTRICITY": 0.000104,
    "INCLINATION": 43.0034,
    "RA_OF_ASC_NODE": 275.1622,
    "ARG_OF_PERICENTER": 296.549,
    "MEAN_ANOMALY": 63.5246,
    "EPHEMERIS_TYPE": 0,
    "CLASSIFICATION_TYPE": "U",
    "NORAD_CAT_ID": 55617,
    "ELEMENT_SET_NO": 999,
    "REV_AT_EPOCH": 15125,
    "BSTAR": 0.00072648,
    "MEAN_MOTION_DOT": 9.615e-05,
    "MEAN_MOTION_DDOT": 0.0,
    "TLE_LINE1": "1 55617U 23020BA  25315.24904382  .00009615  00000+0  72648-3 0  9999",
    "TLE_LINE2": "2 55617  43.0034 275.1622 0001040 296.5490  63.5246 15.02503562151254",
    "COMMENT": "Grouped by shell and plane from TLE"
  },
  {
    "OBJECT_NAME": "STARLINK-5717",
    "OBJECT_ID": "23020BB",
    "EPOCH": "2025-11-11T05:49:00.386976",
    "MEAN_MOTION": 15.02536553,
    "ECCENTRICITY": 0.0001454,
    "INCLINATION": 43.0039,
    "RA_OF_ASC_NODE": 275.1118,
    "ARG_OF_PERICENTER": 260.8632,
    "MEAN_ANOMALY": 99.2046,
    "EPHEMERIS_TYPE": 0,
    "CLASSIFICATION_TYPE": "U",
    "NORAD_CAT_ID": 55618,
    "ELEMENT_SET_NO": 999,
    "REV_AT_EPOCH": 15125,
    "BSTAR": 6.8039e-05,
    "MEAN_MOTION_DOT": 7.16e-06,
    "MEAN_MOTION_DDOT": 0.0,
    "TLE_LINE1": "1 55618U 23020BB  25315.24236559  .00000716  00000+0  68039-4 0  9997",
    "TLE_LINE2": "2 55618  43.0039 275.1118 0001454 260.8632  99.2046 15.02536553151251",
    "COMMENT": "Grouped by shell and plane from TLE"
  },
  {
    "OBJECT_NAME": "STARLINK-5720",
    "OBJECT_ID": "23020BC",
    "EPOCH": "2025-11-11T05:44:12.909120",
    "MEAN_MOTION": 15.02536203,
    "ECCENTRICITY": 0.0001065,
    "INCLINATION": 43.0041,
    "RA_OF_ASC_NODE": 275.0872,
    "ARG_OF_PERICENTER": 274.6,
    "MEAN_ANOMALY": 85.4721,
    "EPHEMERIS_TYPE": 0,
    "CLASSIFICATION_TYPE": "U",
    "NORAD_CAT_ID": 55619,
    "ELEMENT_SET_NO": 999,
    "REV_AT_EPOCH": 15125,
    "BSTAR": 0.00010276000000000001,
    "MEAN_MOTION_DOT": 1.185e-05,
    "MEAN_MOTION_DDOT": 0.0,
    "TLE_LINE1": "1 55619U 23020BC  25315.23903830  .00001185  00000+0  10276-3 0  9990",
    "TLE_LINE2": "2 55619  43.0041 275.0872 0001065 274.6000  85.4721 15.02536203151250",
    "COMMENT": "Grouped by shell and plane from TLE"
  },
  {
    "OBJECT_NAME": "STARLINK-5718",
    "OBJECT_ID": "23020BD",
    "EPOCH": "2025-11-11T05:39:25.251552",
    "MEAN_MOTION": 15.02534281,
    "ECCENTRICITY": 0.0001184,
    "INCLINATION": 43.0046,
    "RA_OF_ASC_NODE": 275.0611,
    "ARG_OF_PERICENTER": 266.4515,
    "MEAN_ANOMALY": 93.6192,
    "EPHEMERIS_TYPE": 0,
    "CLASSIFICATION_TYPE": "U",
    "NORAD_CAT_ID": 55620,
    "ELEMENT_SET_NO": 999,
    "REV_AT_EPOCH": 15125,
    "BSTAR": 2.0382000000000002e-05,
    "MEAN_MOTION_DOT": 7.2e-07,
    "MEAN_MOTION_DDOT": 0.0,
    "TLE_LINE1": "1 55620U 23020BD  25315.23570893  .00000072  00000+0  20382-4 0  9995",
    "TLE_LINE2": "2 55620  43.0046 275.0611 0001184 266.4515  93.6192 15.02534281151257",
    "COMMENT": "Grouped by shell and plane from TLE"
  },
  {
    "OBJECT_NAME": "STARLINK-5709",
    "OBJECT_ID": "23020BE",
    "EPOCH": "2025-11-11T05:55:24.625920",
    "MEAN_MOTION": 15.02534594,
    "ECCENTRICITY": 0.0001651,
    "INCLINATION": 43.0056,
    "RA_OF_ASC_NODE": 275.146,
    "ARG_OF_PERICENTER": 255.8427,
    "MEAN_ANOMALY": 104.2232,
    "EPHEMERIS_TYPE": 0,
    "CLASSIFICATION_TYPE": "U",
    "NORAD_CAT_ID": 55621,
    "ELEMENT_SET_NO": 999,
    "REV_AT_EPOCH": 15125,
    "BSTAR": 0.00036915,
    "MEAN_MOTION_DOT": 4.786e-05,
    "MEAN_MOTION_DDOT": 0.0,
    "TLE_LINE1": "1 55621U 23020BE  25315.24681280  .00004786  00000+0  36915-3 0  9994",
    "TLE_LINE2": "2 55621  43.0056 275.1460 0001651 255.8427 104.2232 15.02534594151256",
    "COMMENT": "Grouped by shell and plane from TLE"
  },
  {
    "OBJECT_NAME": "STARLINK-5702",
    "OBJECT_ID": "23020BF",
    "EPOCH": "2025-11-11T05:36:13.355424",
    "MEAN_MOTION": 15.02535865,
    "ECCENTRICITY": 0.0001226,
    "INCLINATION": 43.0045,
    "RA_OF_ASC_NODE": 275.0478,
    "ARG_OF_PERICENTER": 261.1794,
    "MEAN_ANOMALY": 98.8909,
    "EPHEMERIS_TYPE": 0,
    "CLASSIFICATION_TYPE": "U",
    "NORAD_CAT_ID": 55622,
    "ELEMENT_SET_NO": 999,
    "REV_AT_EPOCH": 15125,
    "BSTAR": 7.419900000000001e-05,
    "MEAN_MOTION_DOT": 7.99e-06,
    "MEAN_MOTION_DDOT": 0.0,
    "TLE_LINE1": "1 55622U 23020BF  25315.23348791  .00000799  00000+0  74199-4 0  9998",
    "TLE_LINE2": "2 55622  43.0045 275.0478 0001226 261.1794  98.8909 15.02535865151259",
    "COMMENT": "Grouped by shell and plane from TLE"
  },
  {
    "OBJECT_NAME": "STARLINK-5698",
    "OBJECT_ID": "23020BG",
    "EPOCH": "2025-11-11T05:29:49.731648",
    "MEAN_MOTION": 15.02537331,
    "ECCENTRICITY": 0.000134,
    "INCLINATION": 43.0051,
    "RA_OF_ASC_NODE": 275.0119,
    "ARG_OF_PERICENTER": 262.7163,
    "MEAN_ANOMALY": 97.3527,
    "EPHEMERIS_TYPE": 0,
    "CLASSIFICATION_TYPE": "U",
    "NORAD_CAT_ID": 55623,
    "ELEMENT_SET_NO": 999,
    "REV_AT_EPOCH": 15125,
    "BSTAR": 4.931e-05,
    "MEAN_MOTION_DOT": 4.62e-06,
    "MEAN_MOTION_DDOT": 0.0,
    "TLE_LINE1": "1 55623U 23020BG  25315.22904782  .00000462  00000+0  49310-4 0  9990",
    "TLE_LINE2": "2 55623  43.0051 275.0119 0001340 262.7163  97.3527 15.02537331151253",
    "COMMENT": "Grouped by shell and plane from TLE"
  },
  {
    "OBJECT_NAME": "STARLINK-30157",
    "OBJECT_ID": "23113T",
    "EPOCH": "2025-11-11T06:59:10.190688",
    "MEAN_MOTION": 15.02537792,
    "ECCENTRICITY": 0.0001447,
    "INCLINATION": 43.0042,
    "RA_OF_ASC_NODE": 274.6739,
    "ARG_OF_PERICENTER": 254.3677,
    "MEAN_ANOMALY": 105.7006,
    "EPHEMERIS_TYPE": 0,
    "CLASSIFICATION_TYPE": "U",
    "NORAD_CAT_ID": 57512,
    "ELEMENT_SET_NO": 999,
    "REV_AT_EPOCH": 12615,
    "BSTAR": 0.0,
    "MEAN_MOTION_DOT": -7.5e-06,
    "MEAN_MOTION_DDOT": 0.0,
    "TLE_LINE1": "1 57512U 23113T   25315.29109017 -.00000750  00000+0 -40420-4 0  9992",
    "TLE_LINE2": "2 57512  43.0042 274.6739 0001447 254.3677 105.7006 15.02537792126158",
    "COMMENT": "Grouped by shell and plane from TLE"
  },
  {
    "OBJECT_NAME": "STARLINK-30509",
    "OBJECT_ID": "23151P",
    "EPOCH": "2025-11-11T06:40:11.775648",
    "MEAN_MOTION": 15.02536418,
    "ECCENTRICITY": 9.32e-05,
    "INCLINATION": 43.0036,
    "RA_OF_ASC_NODE": 275.5914,
    "ARG_OF_PERICENTER": 280.0386,
    "MEAN_ANOMALY": 80.0351,
    "EPHEMERIS_TYPE": 0,
    "CLASSIFICATION_TYPE": "U",
    "NORAD_CAT_ID": 57977,
    "ELEMENT_SET_NO": 999,
    "REV_AT_EPOCH": 11776,
    "BSTAR": 0.0,
    "MEAN_MOTION_DOT": -3.1e-06,
    "MEAN_MOTION_DDOT": 0.0,
    "TLE_LINE1": "1 57977U 23151P   25315.27791407 -.00000310  00000+0 -79010-5 0  9997",
    "TLE_LINE2": "2 57977  43.0036 275.5914 0000932 280.0386  80.0351 15.02536418117761",
    "COMMENT": "Grouped by shell and plane from TLE"
  }
]